NORAD_CAT_ID,OBJECT_NAME,OBJECT_TYPE,EPOCH,MEAN_MOTION,ECCENTRICITY,INCLINATION,RA_OF_ASC_NODE,ARG_OF_PERICENTER,MEAN_ANOMALY,BSTAR,MEAN_MOTION_DOT,MEAN_MOTION_DDOT,TLE_LINE0,TLE_LINE1,TLE_LINE2,SEMIMAJOR_AXIS,PERIOD,APOGEE,PERIGEE,DECAYED
56476.0,STARLINK-5545,PAYLOAD,2023-09-20 06:00:00,15.05464238,0.0003078,69.9992,237.4662,273.76,251.7768,-0.067558,-0.00900673,0.0,0 STARLINK-5545,1 56476U 23064AE  23263.25001157 -.00900673  00000-0 -67558-1 0  9999,2 56476  69.9992 237.4662 0003078 273.7600 251.7768 15.05464238 21060,6928.218,95.652,552.216,547.951,0.0
56476.0,STARLINK-5545,PAYLOAD,2023-09-20 14:00:01,15.04840452,0.0003041,69.999,236.6167,272.3615,258.8247,-0.073332,-0.00967841,0.0,0 STARLINK-5545,1 56476U 23064AE  23263.58334491 -.00967841  00000-0 -73332-1 0  9992,2 56476  69.9990 236.6167 0003041 272.3615 258.8247 15.04840452  5955,6930.132,95.691,554.105,549.89,0.0
56476.0,STARLINK-5545,PAYLOAD,2023-09-20 22:00:00,15.04172253,0.0003007,69.9994,235.7684,267.2864,268.7712,-0.070459,-0.00906785,0.0,0 STARLINK-5545,1 56476U 23064AE  23263.91667824 -.00906785  00000-0 -70459-1 0  9995,2 56476  69.9994 235.7684 0003007 267.2864 268.7712 15.04172253 21169,6932.185,95.734,556.134,551.965,0.0
56476.0,STARLINK-5545,PAYLOAD,2023-09-21 14:00:01,15.0288177,0.000304,69.9989,234.0739,272.169,271.297,-0.077057,-0.00965284,0.0,0 STARLINK-5545,1 56476U 23064AE  23264.58334491 -.00965284  00000-0 -77057-1 0  9990,2 56476  69.9989 234.0739 0003040 272.1690 271.2970 15.02881770 21260,6936.152,95.816,560.126,555.909,0.0
56476.0,STARLINK-5545,PAYLOAD,2023-09-21 22:00:01,15.02216564,0.0002998,69.9992,233.228,267.5474,278.5046,-0.074349,-0.00908116,0.0,0 STARLINK-5545,1 56476U 23064AE  23264.91668981 -.00908116  00000-0 -74349-1 0  9993,2 56476  69.9992 233.2280 0002998 267.5474 278.5046 15.02216564  5949,6938.2,95.858,562.145,557.985,0.0
56476.0,STARLINK-5545,PAYLOAD,2023-09-22 06:00:00,15.01547709,0.000304,69.9989,232.3829,274.7088,273.0395,-0.074408,-0.0089398,0.0,0 STARLINK-5545,1 56476U 23064AE  23265.25001157 -.00893980  00000-0 -74408-1 0  9995,2 56476  69.9989 232.3829 0003040 274.7088 273.0395 15.01547709 21362,6940.26,95.901,564.235,560.015,0.0
56476.0,STARLINK-5545,PAYLOAD,2023-09-22 14:00:01,15.00923488,0.0003002,69.9986,231.5386,272.287,276.4184,-0.080958,-0.00963057,0.0,0 STARLINK-5545,1 56476U 23064AE  23265.58334491 -.00963057  00000-0 -80958-1 0  9991,2 56476  69.9986 231.5386 0003002 272.2870 276.4184 15.00923488  5948,6942.184,95.941,566.133,561.965,0.0
56476.0,STARLINK-5545,PAYLOAD,2023-09-22 22:00:00,15.00259588,0.0002998,69.9989,230.6953,267.7755,281.1059,-0.078211,-0.00907244,0.0,0 STARLINK-5545,1 56476U 23064AE  23265.91667824 -.00907244  00000-0 -78211-1 0  9992,2 56476  69.9989 230.6953 0002998 267.7755 281.1059 15.00259588 21467,6944.232,95.983,568.179,564.015,0.0
56476.0,STARLINK-5545,PAYLOAD,2023-09-23 06:00:00,14.99413506,0.0003153,69.9988,229.8526,275.3247,272.9946,-0.014516,-0.001739,0.0,0 STARLINK-5545,1 56476U 23064AE  23266.25001157 -.00173900  00000-0 -14516-1 0  9993,2 56476  69.9988 229.8526 0003153 275.3247 272.9946 14.99413506 21515,6946.844,96.038,570.9,566.519,0.0
56476.0,STARLINK-5545,PAYLOAD,2023-09-23 14:00:01,14.99309976,0.0003147,69.9987,229.0108,272.2072,274.8143,-0.0032158,-0.00039233,0.0,0 STARLINK-5545,1 56476U 23064AE  23266.58334491 -.00039233  00000-0 -32158-2 0  9992,2 56476  69.9987 229.0108 0003147 272.2072 274.8143 14.99309976 21567,6947.164,96.044,571.215,566.843,0.0
56476.0,STARLINK-5545,PAYLOAD,2023-09-24 06:00:00,14.9929629,0.0003146,69.9996,227.3273,271.2223,273.0937,-0.00044401,-5.522e-05,0.0,0 STARLINK-5545,1 56476U 23064AE  23267.25001157 -.00005522  00000-0 -44401-3 0  9996,2 56476  69.9996 227.3273 0003146 271.2223 273.0937 14.99296290 21664,6947.206,96.045,571.257,566.886,0.0
56476.0,STARLINK-5545,PAYLOAD,2023-09-24 14:00:01,14.99300199,0.0003137,69.9995,226.4855,267.1767,275.7772,-0.0017808,-0.00021816,0.0,0 STARLINK-5545,1 56476U 23064AE  23267.58334491 -.00021816  00000-0 -17808-2 0  9996,2 56476  69.9995 226.4855 0003137 267.1767 275.7772 14.99300199  5949,6947.194,96.045,571.239,566.88,0.0
56476.0,STARLINK-5545,PAYLOAD,2023-09-24 22:00:00,14.99311575,0.0003163,70.0001,225.6439,262.9534,278.6327,0.00089028,0.0001082,0.0,0 STARLINK-5545,1 56476U 23064AE  23267.91667824  .00010820  00000-0  89028-3 0  9997,2 56476  70.0001 225.6439 0003163 262.9534 278.6327 14.99311575  5941,6947.159,96.044,571.221,566.827,0.0
56476.0,STARLINK-5545,PAYLOAD,2023-09-25 06:00:00,14.99312012,0.0003169,70.0,224.8021,270.4536,269.8018,-0.0021446,-0.00026245,0.0,0 STARLINK-5545,1 56476U 23064AE  23268.25001157 -.00026245  00000-0 -21446-2 0  9995,2 56476  70.0000 224.8021 0003169 270.4536 269.8018 14.99312012 21810,6947.158,96.044,571.224,566.821,0.0
56476.0,STARLINK-5545,PAYLOAD,2023-09-25 14:00:01,14.9929657,0.0003173,69.9998,223.9602,268.4558,270.5211,-0.00022668,-2.866e-05,0.0,0 STARLINK-5545,1 56476U 23064AE  23268.58335648 -.00002866  00000-0 -22668-3 0  9997,2 56476  69.9998 223.9602 0003173 268.4558 270.5211 14.99296570  5955,6947.205,96.045,571.275,566.866,0.0
56476.0,STARLINK-5545,PAYLOAD,2023-09-25 22:00:00,14.9931617,0.0003174,70.0003,223.1186,265.6872,271.854,0.00089768,0.00010912,0.0,0 STARLINK-5545,1 56476U 23064AE  23268.91667824  .00010912  00000-0  89768-3 0  9991,2 56476  70.0003 223.1186 0003174 265.6872 271.8540 14.99316170 21915,6947.145,96.044,571.215,566.805,0.0
56476.0,STARLINK-5545,PAYLOAD,2023-09-26 14:00:01,14.99284822,0.0003085,70.0003,221.435,271.2588,263.6667,-0.00020064,-2.547e-05,0.0,0 STARLINK-5545,1 56476U 23064AE  23269.58335648 -.00002547  00000-0 -20064-3 0  9992,2 56476  70.0003 221.4350 0003085 271.2588 263.6667 14.99284822 22016,6947.242,96.046,571.25,566.964,0.0
56476.0,STARLINK-5545,PAYLOAD,2023-09-26 22:00:00,14.9931701,0.0003093,70.0007,220.5935,267.4871,265.9986,0.00029989,3.579e-05,0.0,0 STARLINK-5545,1 56476U 23064AE  23269.91667824  .00003579  00000-0  29989-3 0  9992,2 56476  70.0007 220.5935 0003093 267.4871 265.9986 14.99317010  5735,6947.142,96.044,571.156,566.859,0.0
56476.0,STARLINK-5545,PAYLOAD,2023-09-27 02:01:57,14.99301097,0.0002975,69.9995,220.1704,263.2753,96.8067,-4.679e-05,-6.66e-06,0.0,0 STARLINK-5545,1 56476U 23064AE  23270.08469133 -.00000666  00000-0 -46790-4 0  9991,2 56476  69.9995 220.1704 0002975 263.2753  96.8067 14.99301097 22096,6947.191,96.045,571.123,566.99,0.0
56476.0,STARLINK-5545,PAYLOAD,2023-09-27 06:50:10,14.99303767,0.0002938,69.9997,219.6661,266.7743,93.308,-2.1734e-05,-3.6e-06,0.0,0 STARLINK-5545,1 56476U 23064AE  23270.28483947 -.00000360  00000-0 -21734-4 0  9994,2 56476  69.9997 219.6661 0002938 266.7743  93.3080 14.99303767 21765,6947.183,96.045,571.089,567.007,0.0
56476.0,STARLINK-5545,PAYLOAD,2023-09-28 02:03:02,14.99290722,0.0002776,70.0006,217.6447,269.4686,90.6156,-3.1422e-05,-4.78e-06,0.0,0 STARLINK-5545,1 56476U 23064AE  23271.08545128 -.00000478  00000-0 -31422-4 0  9998,2 56476  70.0006 217.6447 0002776 269.4686  90.6156 14.99290722 22249,6947.224,96.045,571.017,567.16,0.0
56476.0,STARLINK-5545,PAYLOAD,2023-09-28 06:51:15,14.99292835,0.0002248,70.0007,217.1381,251.9265,108.165,-6.2626e-07,-1.01e-06,0.0,0 STARLINK-5545,1 56476U 23064AE  23271.28560077 -.00000101  00000-0 -62626-6 0  9995,2 56476  70.0007 217.1381 0002248 251.9265 108.1650 14.99292835 21919,6947.217,96.045,570.644,567.52,0.0
56476.0,STARLINK-5545,PAYLOAD,2023-09-28 21:15:54,14.99300513,0.0002738,70.0001,215.6224,259.2757,100.8095,2.105e-05,1.64e-06,0.0,0 STARLINK-5545,1 56476U 23064AE  23271.88604585  .00000164  00000-0  21050-4 0  9995,2 56476  70.0001 215.6224 0002738 259.2757 100.8095 14.99300513 22009,6947.193,96.045,570.96,567.156,0.0
56476.0,STARLINK-5545,PAYLOAD,2023-09-29 06:52:19,14.99305212,0.0002678,70.0002,214.6113,259.3903,100.6955,6.6652e-05,7.22e-06,0.0,0 STARLINK-5545,1 56476U 23064AE  23272.28634209  .00000722  00000-0  66652-4 0  9993,2 56476  70.0002 214.6113 0002678 259.3903 100.6955 14.99305212 22063,6947.179,96.044,570.904,567.183,0.0
56476.0,STARLINK-5545,PAYLOAD,2023-09-30 03:41:16,14.9928122,0.0002678,70.0004,212.4203,253.5502,106.5364,0.00045929,5.528e-05,0.0,0 STARLINK-5545,1 56476U 23064AE  23273.15366337  .00005528  00000-0  45929-3 0  9996,2 56476  70.0004 212.4203 0002678 253.5502 106.5364 14.99281220 22557,6947.253,96.046,570.978,567.257,0.0
56476.0,STARLINK-5545,PAYLOAD,2023-09-30 05:17:20,14.99305618,0.0002669,70.0004,212.2523,254.2283,105.8583,0.00012601,1.449e-05,0.0,0 STARLINK-5545,1 56476U 23064AE  23273.22037352  .00001449  00000-0  12601-3 0  9995,2 56476  70.0004 212.2523 0002669 254.2283 105.8583 14.99305618 22209,6947.178,96.044,570.897,567.188,0.0
56476.0,STARLINK-5545,PAYLOAD,2023-09-30 06:53:24,14.99305676,0.0002668,70.0004,212.0837,254.8953,105.1911,0.00012343,1.417e-05,0.0,0 STARLINK-5545,1 56476U 23064AE  23273.28709013  .00001417  00000-0  12343-3 0  9999,2 56476  70.0004 212.0837 0002668 254.8953 105.1911 14.99305676 22576,6947.177,96.044,570.896,567.189,0.0
56476.0,STARLINK-5545,PAYLOAD,2023-09-30 13:17:42,14.99297163,0.0001898,70.0026,211.4071,283.3637,76.7311,8.2023e-06,7e-08,0.0,0 STARLINK-5545,1 56476U 23064AE  23273.55396844  .00000007  00000-0  82023-5 0  9991,2 56476  70.0026 211.4071 0001898 283.3637  76.7311 14.99297163 22616,6947.204,96.045,570.387,567.75,0.0
56476.0,STARLINK-5545,PAYLOAD,2023-10-01 13:18:47,14.99302915,0.0002578,70.0002,208.8844,273.6161,86.4704,-0.00014167,-1.827e-05,0.0,0 STARLINK-5545,1 56476U 23064AE  23274.55471954 -.00001827  00000-0 -14167-3 0  9993,2 56476  70.0002 208.8844 0002578 273.6161  86.4704 14.99302915 22401,6947.186,96.045,570.842,567.26,0.0
56476.0,STARLINK-5545,PAYLOAD,2023-10-01 21:19:09,14.99304046,0.0002825,70.0,208.0408,265.4133,94.6704,-8.5733e-05,-1.143e-05,0.0,0 STARLINK-5545,1 56476U 23064AE  23274.88830097 -.00001143  00000-0 -85733-4 0  9995,2 56476  70.0000 208.0408 0002825 265.4133  94.6704 14.99304046 22453,6947.182,96.045,571.01,567.085,0.0
